[{"OBJECT_NAME":"DONGPO 08","OBJECT_ID":"2022-167E","EPOCH":"2026-03-09T22:57:52.742880","MEAN_MOTION":15.31542505,"ECCENTRICITY":0.00092155,"INCLINATION":97.6764,"RA_OF_ASC_NODE":233.3854,"ARG_OF_PERICENTER":153.9158,"MEAN_ANOMALY":206.2548,"EPHEMERIS_TYPE":0,"CLASSIFICATION_TYPE":"U","NORAD_CAT_ID":54686,"ELEMENT_SET_NO":999,"REV_AT_EPOCH":18012,"BSTAR":0.0004734784,"MEAN_MOTION_DOT":0.0001437,"MEAN_MOTION_DDOT":0},{"OBJECT_NAME":"STARLINK-32788","OBJECT_ID":"2025-003R","EPOCH":"2026-03-09T22:59:49.827840","MEAN_MOTION":15.2759098,"ECCENTRICITY":7.027e-5,"INCLINATION":42.9941,"RA_OF_ASC_NODE":287.3671,"ARG_OF_PERICENTER":7.8344,"MEAN_ANOMALY":352.2518,"EPHEMERIS_TYPE":0,"CLASSIFICATION_TYPE":"U","NORAD_CAT_ID":62502,"ELEMENT_SET_NO":999,"REV_AT_EPOCH":6659,"BSTAR":0.00084614204,"MEAN_MOTION_DOT":0.00023103,"MEAN_MOTION_DDOT":0}]
